start=new Date('2022-10-15T00:00:00.000Z').valueOf();
sats=[{"DECAY_DATE":null,"PERIOD":"95.437","ELEMENT_SET_NO":"999","MEAN_MOTION_DDOT":"0.0000000000000","SEMIMAJOR_AXIS":"6917.850","MEAN_ANOMALY":"313.3844","OBJECT_ID":"2022-022AA","CLASSIFICATION_TYPE":"U","MEAN_MOTION":"15.08850053","NORAD_CAT_ID":"51876","MEAN_MOTION_DOT":"0.00000911","ARG_OF_PERICENTER":"46.7288","INCLINATION":"53.2163","FILE":"3612869","COUNTRY_CODE":"US","EPOCH":"2022-10-14T20:53:44.734560","EPHEMERIS_TYPE":"0","TLE_LINE2":"2 51876  53.2163 183.8536 0001681  46.7288 313.3844 15.08850053 35643","OBJECT_NAME":"STARLINK-3583","REV_AT_EPOCH":"3564","TLE_LINE1":"1 51876U 22022AA  22287.87065665  .00000911  00000-0  75328-4 0  9999","LAUNCH_DATE":"2022-03-03","MEAN_ELEMENT_THEORY":"SGP4","REF_FRAME":"TEME","PERIAPSIS":"538.552","APOAPSIS":"540.878","RA_OF_ASC_NODE":"183.8536","GP_ID":"215143898","SITE":"AFETR","OBJECT_TYPE":"PAYLOAD","ECCENTRICITY":"0.00016810","BSTAR":"0.00007532800000","CENTER_NAME":"EARTH","RCS_SIZE":"LARGE","TIME_SYSTEM":"UTC"},{"NORAD_CAT_ID":"51877","MEAN_MOTION":"15.08831013","FILE":"3612869","INCLINATION":"53.2171","ARG_OF_PERICENTER":"67.2061","MEAN_MOTION_DOT":"0.00000294","EPHEMERIS_TYPE":"0","EPOCH":"2022-10-14T18:53:10.993920","COUNTRY_CODE":"US","REV_AT_EPOCH":"3576","OBJECT_NAME":"STARLINK-3556","TLE_LINE2":"2 51877  53.2171 174.2378 0001701  67.2061 292.9111 15.08831013 35768","PERIOD":"95.438","DECAY_DATE":null,"SEMIMAJOR_AXIS":"6917.908","ELEMENT_SET_NO":"999","MEAN_MOTION_DDOT":"0.0000000000000","OBJECT_ID":"2022-022AB","MEAN_ANOMALY":"292.9111","CLASSIFICATION_TYPE":"U","OBJECT_TYPE":"PAYLOAD","SITE":"AFETR","RA_OF_ASC_NODE":"174.2378","GP_ID":"215144649","APOAPSIS":"540.950","ECCENTRICITY":"0.00017010","BSTAR":"0.00003658800000","TIME_SYSTEM":"UTC","RCS_SIZE":"LARGE","CENTER_NAME":"EARTH","MEAN_ELEMENT_THEORY":"SGP4","LAUNCH_DATE":"2022-03-03","TLE_LINE1":"1 51877U 22022AB  22287.78693280  .00000294  00000-0  36588-4 0  9999","PERIAPSIS":"538.596","REF_FRAME":"TEME"},{"CLASSIFICATION_TYPE":"U","OBJECT_ID":"2022-022AC","MEAN_ANOMALY":"305.7972","ELEMENT_SET_NO":"999","MEAN_MOTION_DDOT":"0.0000000000000","SEMIMAJOR_AXIS":"6917.834","PERIOD":"95.437","DECAY_DATE":null,"TLE_LINE2":"2 51878  53.2180 187.7656 0001630  54.3172 305.7972 15.08855247 35514","OBJECT_NAME":"STARLINK-3575","REV_AT_EPOCH":"3551","EPOCH":"2022-10-14T00:03:08.219808","EPHEMERIS_TYPE":"0","COUNTRY_CODE":"US","MEAN_MOTION_DOT":"0.00005850","FILE":"3611991","INCLINATION":"53.2180","ARG_OF_PERICENTER":"54.3172","MEAN_MOTION":"15.08855247","NORAD_CAT_ID":"51878","REF_FRAME":"TEME","PERIAPSIS":"538.571","LAUNCH_DATE":"2022-03-03","TLE_LINE1":"1 51878U 22022AC  22287.00217847  .00005850  00000-0  38519-3 0  9994","MEAN_ELEMENT_THEORY":"SGP4","CENTER_NAME":"EARTH","TIME_SYSTEM":"UTC","RCS_SIZE":"LARGE","BSTAR":"0.00038519000000","ECCENTRICITY":"0.00016300","RA_OF_ASC_NODE":"187.7656","GP_ID":"215102707","APOAPSIS":"540.826","OBJECT_TYPE":"PAYLOAD","SITE":"AFETR"},{"CLASSIFICATION_TYPE":"U","MEAN_ANOMALY":"298.9496","OBJECT_ID":"2022-022AD","MEAN_MOTION_DDOT":"0.0000000000000","ELEMENT_SET_NO":"999","SEMIMAJOR_AXIS":"6917.868","DECAY_DATE":null,"PERIOD":"95.437","TLE_LINE2":"2 51879  53.2161 177.2441 0001604  61.1657 298.9496 15.08844008 35668","REV_AT_EPOCH":"3566","OBJECT_NAME":"STARLINK-3572","COUNTRY_CODE":"US","EPOCH":"2022-10-14T02:48:44.435808","EPHEMERIS_TYPE":"0","MEAN_MOTION_DOT":"0.00004665","INCLINATION":"53.2161","ARG_OF_PERICENTER":"61.1657","FILE":"3611991","MEAN_MOTION":"15.08844008","NORAD_CAT_ID":"51879","REF_FRAME":"TEME","PERIAPSIS":"538.624","TLE_LINE1":"1 51879U 22022AD  22287.11718097  .00004665  00000-0  31095-3 0  9995","LAUNCH_DATE":"2022-03-03","MEAN_ELEMENT_THEORY":"SGP4","CENTER_NAME":"EARTH","RCS_SIZE":"LARGE","TIME_SYSTEM":"UTC","BSTAR":"0.00031095000000","ECCENTRICITY":"0.00016040","APOAPSIS":"540.843","GP_ID":"215102958","RA_OF_ASC_NODE":"177.2441","SITE":"AFETR","OBJECT_TYPE":"PAYLOAD"},{"MEAN_MOTION":"15.08847675","NORAD_CAT_ID":"51880","MEAN_MOTION_DOT":"0.00003577","FILE":"3612869","INCLINATION":"53.2141","ARG_OF_PERICENTER":"68.7923","EPOCH":"2022-10-14T19:51:30.798720","EPHEMERIS_TYPE":"0","COUNTRY_CODE":"US","TLE_LINE2":"2 51880  53.2141 184.0673 0001525  68.7923 291.3232 15.08847675 35637","REV_AT_EPOCH":"3563","OBJECT_NAME":"STARLINK-3566","PERIOD":"95.437","DECAY_DATE":null,"ELEMENT_SET_NO":"999","MEAN_MOTION_DDOT":"0.0000000000000","SEMIMAJOR_AXIS":"6917.857","OBJECT_ID":"2022-022AE","MEAN_ANOMALY":"291.3232","CLASSIFICATION_TYPE":"U","RA_OF_ASC_NODE":"184.0673","GP_ID":"215144399","APOAPSIS":"540.777","OBJECT_TYPE":"PAYLOAD","SITE":"AFETR","ECCENTRICITY":"0.00015250","BSTAR":"0.00024265000000","CENTER_NAME":"EARTH","TIME_SYSTEM":"UTC","RCS_SIZE":"LARGE","LAUNCH_DATE":"2022-03-03","TLE_LINE1":"1 51880U 22022AE  22287.82743980  .00003577  00000-0  24265-3 0  9996","MEAN_ELEMENT_THEORY":"SGP4","REF_FRAME":"TEME","PERIAPSIS":"538.667"},{"COUNTRY_CODE":"US","EPHEMERIS_TYPE":"0","EPOCH":"2022-10-14T02:38:07.814688","TLE_LINE2":"2 51881  53.2177 177.2839 0001917  57.7027 302.4151 15.08839050 35714","OBJECT_NAME":"STARLINK-3504","REV_AT_EPOCH":"3571","MEAN_MOTION":"15.08839050","NORAD_CAT_ID":"51881","MEAN_MOTION_DOT":"0.00002145","INCLINATION":"53.2177","ARG_OF_PERICENTER":"57.7027","FILE":"3611991","MEAN_ANOMALY":"302.4151","OBJECT_ID":"2022-022AF","CLASSIFICATION_TYPE":"U","DECAY_DATE":null,"PERIOD":"95.438","ELEMENT_SET_NO":"999","MEAN_MOTION_DDOT":"0.0000000000000","SEMIMAJOR_AXIS":"6917.883","BSTAR":"0.00015286000000","CENTER_NAME":"EARTH","RCS_SIZE":"LARGE","TIME_SYSTEM":"UTC","APOAPSIS":"541.074","RA_OF_ASC_NODE":"177.2839","GP_ID":"215101957","SITE":"AFETR","OBJECT_TYPE":"PAYLOAD","ECCENTRICITY":"0.00019170","REF_FRAME":"TEME","PERIAPSIS":"538.422","TLE_LINE1":"1 51881U 22022AF  22287.10981267  .00002145  00000-0  15286-3 0  9993","LAUNCH_DATE":"2022-03-03","MEAN_ELEMENT_THEORY":"SGP4"},{"CLASSIFICATION_TYPE":"U","MEAN_ANOMALY":"314.2175","OBJECT_ID":"2022-022AG","MEAN_MOTION_DDOT":"0.0000000000000","ELEMENT_SET_NO":"999","SEMIMAJOR_AXIS":"6917.812","PERIOD":"95.436","DECAY_DATE":null,"TLE_LINE2":"2 51882  53.2144 176.0299 0001946  45.8977 314.2175 15.08862518 35756","REV_AT_EPOCH":"3575","OBJECT_NAME":"STARLINK-3570","EPOCH":"2022-10-14T09:15:34.586208","EPHEMERIS_TYPE":"0","COUNTRY_CODE":"US","MEAN_MOTION_DOT":"0.00018156","FILE":"3611991","ARG_OF_PERICENTER":"45.8977","INCLINATION":"53.2144","MEAN_MOTION":"15.08862518","NORAD_CAT_ID":"51882","REF_FRAME":"TEME","PERIAPSIS":"538.330","LAUNCH_DATE":"2022-03-03","TLE_LINE1":"1 51882U 22022AG  22287.38581697  .00018156  00000-0  11552-2 0  9997","MEAN_ELEMENT_THEORY":"SGP4","CENTER_NAME":"EARTH","TIME_SYSTEM":"UTC","RCS_SIZE":"LARGE","BSTAR":"0.00115520000000","ECCENTRICITY":"0.00019460","GP_ID":"215102207","RA_OF_ASC_NODE":"176.0299","APOAPSIS":"541.023","OBJECT_TYPE":"PAYLOAD","SITE":"AFETR"},{"ECCENTRICITY":"0.00018080","APOAPSIS":"540.973","RA_OF_ASC_NODE":"175.8284","GP_ID":"215103459","SITE":"AFETR","OBJECT_TYPE":"PAYLOAD","CENTER_NAME":"EARTH","RCS_SIZE":"LARGE","TIME_SYSTEM":"UTC","BSTAR":"0.00007740600000","TLE_LINE1":"1 51883U 22022AH  22287.43461220  .00000944  00000-0  77406-4 0  9991","LAUNCH_DATE":"2022-03-03","MEAN_ELEMENT_THEORY":"SGP4","REF_FRAME":"TEME","PERIAPSIS":"538.472","MEAN_MOTION_DOT":"0.00000944","ARG_OF_PERICENTER":"56.2645","INCLINATION":"53.2167","FILE":"3611991","MEAN_MOTION":"15.08847407","NORAD_CAT_ID":"51883","TLE_LINE2":"2 51883  53.2167 175.8284 0001808  56.2645 303.8520 15.08847407 35701","OBJECT_NAME":"STARLINK-3576","REV_AT_EPOCH":"3570","COUNTRY_CODE":"US","EPOCH":"2022-10-14T10:25:50.494080","EPHEMERIS_TYPE":"0","MEAN_MOTION_DDOT":"0.0000000000000","ELEMENT_SET_NO":"999","SEMIMAJOR_AXIS":"6917.858","DECAY_DATE":null,"PERIOD":"95.437","CLASSIFICATION_TYPE":"U","OBJECT_ID":"2022-022AH","MEAN_ANOMALY":"303.8520"},{"ECCENTRICITY":"0.00011680","OBJECT_TYPE":"PAYLOAD","SITE":"AFETR","GP_ID":"215103709","RA_OF_ASC_NODE":"177.2583","APOAPSIS":"540.374","TIME_SYSTEM":"UTC","RCS_SIZE":"LARGE","CENTER_NAME":"EARTH","BSTAR":"-0.00068312000000","MEAN_ELEMENT_THEORY":"SGP4","LAUNCH_DATE":"2022-03-03","TLE_LINE1":"1 51884U 22022AJ  22287.11347323 -.00011161  00000-0 -68312-3 0  9994","PERIAPSIS":"538.758","REF_FRAME":"TEME","FILE":"3611991","ARG_OF_PERICENTER":"63.9966","INCLINATION":"53.2173","MEAN_MOTION_DOT":"-0.00011161","NORAD_CAT_ID":"51884","MEAN_MOTION":"15.08898584","REV_AT_EPOCH":"3574","OBJECT_NAME":"STARLINK-3577","TLE_LINE2":"2 51884  53.2173 177.2583 0001168  63.9966 296.1146 15.08898584 35741","EPHEMERIS_TYPE":"0","EPOCH":"2022-10-14T02:43:24.087072","COUNTRY_CODE":"US","SEMIMAJOR_AXIS":"6917.701","MEAN_MOTION_DDOT":"0.0000000000000","ELEMENT_SET_NO":"999","PERIOD":"95.434","DECAY_DATE":null,"CLASSIFICATION_TYPE":"U","OBJECT_ID":"2022-022AJ","MEAN_ANOMALY":"296.1146"},{"CLASSIFICATION_TYPE":"U","MEAN_ANOMALY":"303.5760","OBJECT_ID":"2022-022AK","SEMIMAJOR_AXIS":"6917.852","MEAN_MOTION_DDOT":"0.0000000000000","ELEMENT_SET_NO":"999","PERIOD":"95.437","DECAY_DATE":null,"REV_AT_EPOCH":"3570","OBJECT_NAME":"STARLINK-3584","TLE_LINE2":"2 51885  53.2149 175.8528 0001710  56.5396 303.5760 15.08849313 35703","EPHEMERIS_TYPE":"0","EPOCH":"2022-10-14T10:19:09.801120","COUNTRY_CODE":"US","FILE":"3611991","INCLINATION":"53.2149","ARG_OF_PERICENTER":"56.5396","MEAN_MOTION_DOT":"0.00004374","NORAD_CAT_ID":"51885","MEAN_MOTION":"15.08849313","PERIAPSIS":"538.534","REF_FRAME":"TEME","MEAN_ELEMENT_THEORY":"SGP4","LAUNCH_DATE":"2022-03-03","TLE_LINE1":"1 51885U 22022AK  22287.42997455  .00004374  00000-0  29269-3 0  9990","TIME_SYSTEM":"UTC","RCS_SIZE":"LARGE","CENTER_NAME":"EARTH","BSTAR":"0.00029269000000","ECCENTRICITY":"0.00017100","OBJECT_TYPE":"PAYLOAD","SITE":"AFETR","RA_OF_ASC_NODE":"175.8528","GP_ID":"215102458","APOAPSIS":"540.900"}];
